CCSDS_OMM_VERS = 2.0
CREATION_DATE  = 
ORIGINATOR     = 

OBJECT_NAME    = SILVERSAT
OBJECT_ID      = 1998-067XV
CENTER_NAME    = EARTH
REF_FRAME      = TEME
TIME_SYSTEM    = UTC
MEAN_ELEMENT_THEORY = SGP/SGP4

EPOCH          = 2026-02-06T17:08:02.517792
MEAN_MOTION    = 15.62543187
ECCENTRICITY   = .00025504
INCLINATION    = 51.6272
RA_OF_ASC_NODE = 222.3150
ARG_OF_PERICENTER = 223.1841
MEAN_ANOMALY   = 136.8954

EPHEMERIS_TYPE = 0
CLASSIFICATION_TYPE = U
NORAD_CAT_ID   = 66909
ELEMENT_SET_NO = 999
REV_AT_EPOCH   = 1033
BSTAR          = .1499239E-2
MEAN_MOTION_DOT = .138156E-2
MEAN_MOTION_DDOT = 0

CCSDS_OMM_VERS = 2.0
CREATION_DATE  = 
ORIGINATOR     = 

OBJECT_NAME    = 1998-067XW
OBJECT_ID      = 1998-067XW
CENTER_NAME    = EARTH
REF_FRAME      = TEME
TIME_SYSTEM    = UTC
MEAN_ELEMENT_THEORY = SGP/SGP4

EPOCH          = 2026-02-06T17:27:41.102784
MEAN_MOTION    = 15.61211268
ECCENTRICITY   = .00009584
INCLINATION    = 51.6257
RA_OF_ASC_NODE = 222.4006
ARG_OF_PERICENTER = 240.3067
MEAN_ANOMALY   = 119.7831

EPHEMERIS_TYPE = 0
CLASSIFICATION_TYPE = U
NORAD_CAT_ID   = 66910
ELEMENT_SET_NO = 999
REV_AT_EPOCH   = 1033
BSTAR          = .13119254E-2
MEAN_MOTION_DOT = .114383E-2
MEAN_MOTION_DDOT = 0

CCSDS_OMM_VERS = 2.0
CREATION_DATE  = 
ORIGINATOR     = 

OBJECT_NAME    = 1998-067XX
OBJECT_ID      = 1998-067XX
CENTER_NAME    = EARTH
REF_FRAME      = TEME
TIME_SYSTEM    = UTC
MEAN_ELEMENT_THEORY = SGP/SGP4

EPOCH          = 2026-02-06T17:59:20.753664
MEAN_MOTION    = 15.63735398
ECCENTRICITY   = .0002423
INCLINATION    = 51.6250
RA_OF_ASC_NODE = 221.7970
ARG_OF_PERICENTER = 254.7739
MEAN_ANOMALY   = 105.2988

EPHEMERIS_TYPE = 0
CLASSIFICATION_TYPE = U
NORAD_CAT_ID   = 66911
ELEMENT_SET_NO = 999
REV_AT_EPOCH   = 1033
BSTAR          = .15986426E-2
MEAN_MOTION_DOT = .154731E-2
MEAN_MOTION_DDOT = 0

CCSDS_OMM_VERS = 2.0
CREATION_DATE  = 
ORIGINATOR     = 

OBJECT_NAME    = 1998-067XY
OBJECT_ID      = 1998-067XY
CENTER_NAME    = EARTH
REF_FRAME      = TEME
TIME_SYSTEM    = UTC
MEAN_ELEMENT_THEORY = SGP/SGP4

EPOCH          = 2026-02-06T17:20:28.522176
MEAN_MOTION    = 15.58441538
ECCENTRICITY   = .0001319
INCLINATION    = 51.6280
RA_OF_ASC_NODE = 223.1240
ARG_OF_PERICENTER = 158.7208
MEAN_ANOMALY   = 201.3840

EPHEMERIS_TYPE = 0
CLASSIFICATION_TYPE = U
NORAD_CAT_ID   = 66912
ELEMENT_SET_NO = 999
REV_AT_EPOCH   = 1031
BSTAR          = .10639293E-2
MEAN_MOTION_DOT = .8301E-3
MEAN_MOTION_DDOT = 0

